FENGYUN 1C DEB          
1 38729U 99025ETW 17343.14377765  .00000479  00000-0  34498-3 0  9993
2 38729  99.1672 303.8795 0094787  71.0055 290.1350 13.99521981422447
